[{"CCSDS_OMM_VERS":"3.0","COMMENT":"GENERATED VIA SPACE-TRACK.ORG API","CREATION_DATE":"2026-06-24T02:28:56","ORIGINATOR":"18 SPCS","OBJECT_NAME":"GALILEO 16 (26C)","OBJECT_ID":"2016-069B","CENTER_NAME":"EARTH","REF_FRAME":"TEME","TIME_SYSTEM":"UTC","MEAN_ELEMENT_THEORY":"SGP4","EPOCH":"2026-06-23T15:18:34.835616","MEAN_MOTION":"1.70473709","ECCENTRICITY":"0.00045345","INCLINATION":"55.5001","RA_OF_ASC_NODE":"100.9027","ARG_OF_PERICENTER":"9.5312","MEAN_ANOMALY":"350.4536","EPHEMERIS_TYPE":"0","CLASSIFICATION_TYPE":"U","NORAD_CAT_ID":"41860","ELEMENT_SET_NO":"999","REV_AT_EPOCH":"5976","BSTAR":"0.00000000000000","MEAN_MOTION_DOT":"-0.00000034","MEAN_MOTION_DDOT":"0.0000000000000","SEMIMAJOR_AXIS":"29600.354","PERIOD":"844.705","APOAPSIS":"23235.641","PERIAPSIS":"23208.796","OBJECT_TYPE":"PAYLOAD","RCS_SIZE":"LARGE","COUNTRY_CODE":"ESA","LAUNCH_DATE":"2016-11-17","SITE":"FRGUI","DECAY_DATE":null,"FILE":"5257684","GP_ID":"331030187","TLE_LINE0":"0 GALILEO 16 (26C)","TLE_LINE1":"1 41860U 16069B   26174.63790319 -.00000034  00000-0  00000-0 0  9997","TLE_LINE2":"2 41860  55.5001 100.9027 0004535   9.5312 350.4536  1.70473709 59764"}]